start=new Date('2023-07-02T00:00:00.000Z').valueOf();
sats=[{"MEAN_ANOMALY":"90.3160","MEAN_MOTION":"15.69926919","LAUNCH_DATE":"2023-05-31","COUNTRY_CODE":"US","MEAN_MOTION_DOT":"0.00000189","CLASSIFICATION_TYPE":"U","TLE_LINE1":"1 56790U 23078Z   23181.82384641  .00000189  00000-0  33407-5 0  9998","SEMIMAJOR_AXIS":"6737.243","PERIOD":"91.724","SITE":"AFWTR","OBJECT_NAME":"STARLINK-6345","TLE_LINE2":"2 56790  69.9962 327.4164 0003853 269.7594  90.3160 15.69926919  5100","APOAPSIS":"361.704","INCLINATION":"69.9962","RA_OF_ASC_NODE":"327.4164","PERIAPSIS":"356.512","EPOCH":"2023-06-30T19:46:20.329824","GP_ID":"234640821","DECAY_DATE":null,"FILE":"3946381","CENTER_NAME":"EARTH","NORAD_CAT_ID":"56790","ARG_OF_PERICENTER":"269.7594","OBJECT_TYPE":"PAYLOAD","TIME_SYSTEM":"UTC","OBJECT_ID":"2023-078Z","ECCENTRICITY":"0.00038530","REF_FRAME":"TEME","REV_AT_EPOCH":"510","BSTAR":"0.00000334070000","MEAN_MOTION_DDOT":"0.0000000000000","MEAN_ELEMENT_THEORY":"SGP4","EPHEMERIS_TYPE":"0","ELEMENT_SET_NO":"999","RCS_SIZE":"LARGE"},{"EPOCH":"2023-07-01T18:41:23.882496","PERIAPSIS":"356.551","CENTER_NAME":"EARTH","DECAY_DATE":null,"GP_ID":"234654181","FILE":"3946929","APOAPSIS":"361.616","TLE_LINE2":"2 56791  69.9964 324.7240 0003759 268.6845  91.3920 15.69935470  5253","RA_OF_ASC_NODE":"324.7240","INCLINATION":"69.9964","OBJECT_NAME":"STARLINK-5977","PERIOD":"91.724","SITE":"AFWTR","CLASSIFICATION_TYPE":"U","SEMIMAJOR_AXIS":"6737.219","TLE_LINE1":"1 56791U 23078AA  23182.77874864  .00000580  00000-0  65891-5 0  9992","COUNTRY_CODE":"US","MEAN_MOTION_DOT":"0.00000580","MEAN_ANOMALY":"91.3920","LAUNCH_DATE":"2023-05-31","MEAN_MOTION":"15.69935470","RCS_SIZE":"LARGE","ELEMENT_SET_NO":"999","EPHEMERIS_TYPE":"0","MEAN_ELEMENT_THEORY":"SGP4","BSTAR":"0.00000658910000","REV_AT_EPOCH":"525","MEAN_MOTION_DDOT":"0.0000000000000","TIME_SYSTEM":"UTC","REF_FRAME":"TEME","ECCENTRICITY":"0.00037590","OBJECT_ID":"2023-078AA","OBJECT_TYPE":"PAYLOAD","ARG_OF_PERICENTER":"268.6845","NORAD_CAT_ID":"56791"},{"NORAD_CAT_ID":"56792","OBJECT_TYPE":"PAYLOAD","ARG_OF_PERICENTER":"265.0373","REF_FRAME":"TEME","ECCENTRICITY":"0.00035920","OBJECT_ID":"2023-078AB","TIME_SYSTEM":"UTC","MEAN_MOTION_DDOT":"0.0000000000000","BSTAR":"0.00008397700000","REV_AT_EPOCH":"525","MEAN_ELEMENT_THEORY":"SGP4","ELEMENT_SET_NO":"999","EPHEMERIS_TYPE":"0","RCS_SIZE":"LARGE","LAUNCH_DATE":"2023-05-31","MEAN_MOTION":"15.69935027","MEAN_ANOMALY":"95.0413","MEAN_MOTION_DOT":"0.00009902","COUNTRY_CODE":"US","TLE_LINE1":"1 56792U 23078AB  23182.77927851  .00009902  00000-0  83977-4 0  9999","SEMIMAJOR_AXIS":"6737.220","CLASSIFICATION_TYPE":"U","SITE":"AFWTR","PERIOD":"91.724","OBJECT_NAME":"STARLINK-6046","INCLINATION":"69.9995","RA_OF_ASC_NODE":"324.7265","APOAPSIS":"361.505","TLE_LINE2":"2 56792  69.9995 324.7265 0003592 265.0373  95.0413 15.69935027  5253","CENTER_NAME":"EARTH","DECAY_DATE":null,"GP_ID":"234654178","FILE":"3946929","EPOCH":"2023-07-01T18:42:09.663264","PERIAPSIS":"356.665"},{"MEAN_ELEMENT_THEORY":"SGP4","BSTAR":"0.00000440000000","REV_AT_EPOCH":"519","MEAN_MOTION_DDOT":"0.0000000000000","RCS_SIZE":"LARGE","ELEMENT_SET_NO":"999","EPHEMERIS_TYPE":"0","NORAD_CAT_ID":"56793","TIME_SYSTEM":"UTC","REF_FRAME":"TEME","ECCENTRICITY":"0.00033770","OBJECT_ID":"2023-078AC","OBJECT_TYPE":"PAYLOAD","ARG_OF_PERICENTER":"269.7372","APOAPSIS":"361.389","TLE_LINE2":"2 56793  69.9983 325.7950 0003377 269.7372  90.3437 15.69925008  5199","INCLINATION":"69.9983","RA_OF_ASC_NODE":"325.7950","OBJECT_NAME":"STARLINK-6052","EPOCH":"2023-07-01T09:29:40.900992","PERIAPSIS":"356.838","CENTER_NAME":"EARTH","GP_ID":"234648159","DECAY_DATE":null,"FILE":"3946693","COUNTRY_CODE":"US","MEAN_MOTION_DOT":"0.00000316","MEAN_ANOMALY":"90.3437","LAUNCH_DATE":"2023-05-31","MEAN_MOTION":"15.69925008","PERIOD":"91.724","SITE":"AFWTR","CLASSIFICATION_TYPE":"U","TLE_LINE1":"1 56793U 23078AC  23182.39561228  .00000316  00000-0  44000-5 0  9995","SEMIMAJOR_AXIS":"6737.249"},{"GP_ID":"234640558","DECAY_DATE":null,"FILE":"3946359","CENTER_NAME":"EARTH","PERIAPSIS":"356.678","EPOCH":"2023-06-30T19:45:16.474176","INCLINATION":"69.9971","RA_OF_ASC_NODE":"327.4144","TLE_LINE2":"2 56794  69.9971 327.4144 0003597 269.0247  91.0537 15.69929152  5103","APOAPSIS":"361.525","OBJECT_NAME":"STARLINK-6060","SITE":"AFWTR","PERIOD":"91.724","SEMIMAJOR_AXIS":"6737.237","TLE_LINE1":"1 56794U 23078AD  23181.82310734  .00001334  00000-0  12861-4 0  9997","CLASSIFICATION_TYPE":"U","MEAN_MOTION_DOT":"0.00001334","COUNTRY_CODE":"US","MEAN_MOTION":"15.69929152","LAUNCH_DATE":"2023-05-31","MEAN_ANOMALY":"91.0537","RCS_SIZE":"LARGE","EPHEMERIS_TYPE":"0","ELEMENT_SET_NO":"999","MEAN_ELEMENT_THEORY":"SGP4","MEAN_MOTION_DDOT":"0.0000000000000","REV_AT_EPOCH":"510","BSTAR":"0.00001286100000","ECCENTRICITY":"0.00035970","OBJECT_ID":"2023-078AD","REF_FRAME":"TEME","TIME_SYSTEM":"UTC","ARG_OF_PERICENTER":"269.0247","OBJECT_TYPE":"PAYLOAD","NORAD_CAT_ID":"56794"},{"OBJECT_ID":"2023-078AE","ECCENTRICITY":"0.00033290","REF_FRAME":"TEME","TIME_SYSTEM":"UTC","ARG_OF_PERICENTER":"270.1530","OBJECT_TYPE":"PAYLOAD","NORAD_CAT_ID":"56795","RCS_SIZE":"LARGE","EPHEMERIS_TYPE":"0","ELEMENT_SET_NO":"999","MEAN_ELEMENT_THEORY":"SGP4","MEAN_MOTION_DDOT":"0.0000000000000","REV_AT_EPOCH":"510","BSTAR":"0.00001019000000","SITE":"AFWTR","PERIOD":"91.724","TLE_LINE1":"1 56795U 23078AE  23181.82152865  .00001013  00000-0  10190-4 0  9994","SEMIMAJOR_AXIS":"6737.243","CLASSIFICATION_TYPE":"U","MEAN_MOTION_DOT":"0.00001013","COUNTRY_CODE":"US","MEAN_MOTION":"15.69926793","LAUNCH_DATE":"2023-05-31","MEAN_ANOMALY":"89.9284","DECAY_DATE":null,"GP_ID":"234640548","FILE":"3946359","CENTER_NAME":"EARTH","PERIAPSIS":"356.866","EPOCH":"2023-06-30T19:43:00.075360","RA_OF_ASC_NODE":"327.4053","INCLINATION":"69.9974","TLE_LINE2":"2 56795  69.9974 327.4053 0003329 270.1530  89.9284 15.69926793  5100","APOAPSIS":"361.351","OBJECT_NAME":"STARLINK-6061"},{"ELEMENT_SET_NO":"999","EPHEMERIS_TYPE":"0","RCS_SIZE":"LARGE","MEAN_MOTION_DDOT":"0.0000000000000","BSTAR":"0.00001559700000","REV_AT_EPOCH":"510","MEAN_ELEMENT_THEORY":"SGP4","OBJECT_TYPE":"PAYLOAD","ARG_OF_PERICENTER":"267.0033","REF_FRAME":"TEME","OBJECT_ID":"2023-078AF","ECCENTRICITY":"0.00033900","TIME_SYSTEM":"UTC","NORAD_CAT_ID":"56796","CENTER_NAME":"EARTH","FILE":"3946359","GP_ID":"234640257","DECAY_DATE":null,"EPOCH":"2023-06-30T19:45:34.852320","PERIAPSIS":"356.824","OBJECT_NAME":"STARLINK-6049","RA_OF_ASC_NODE":"327.4131","INCLINATION":"69.9962","APOAPSIS":"361.391","TLE_LINE2":"2 56796  69.9962 327.4131 0003390 267.0033  93.0774 15.69927104  5103","SEMIMAJOR_AXIS":"6737.243","TLE_LINE1":"1 56796U 23078AF  23181.82332005  .00001663  00000-0  15597-4 0  9998","CLASSIFICATION_TYPE":"U","SITE":"AFWTR","PERIOD":"91.724","LAUNCH_DATE":"2023-05-31","MEAN_MOTION":"15.69927104","MEAN_ANOMALY":"93.0774","MEAN_MOTION_DOT":"0.00001663","COUNTRY_CODE":"US"},{"RA_OF_ASC_NODE":"327.4087","INCLINATION":"69.9984","TLE_LINE2":"2 56797  69.9984 327.4087 0003679 269.1304  90.9471 15.69927551  5108","APOAPSIS":"361.585","OBJECT_NAME":"STARLINK-6058","DECAY_DATE":null,"GP_ID":"234642527","FILE":"3946442","CENTER_NAME":"EARTH","PERIAPSIS":"356.628","EPOCH":"2023-06-30T19:44:12.809472","MEAN_MOTION_DOT":"0.00001251","COUNTRY_CODE":"US","MEAN_MOTION":"15.69927551","LAUNCH_DATE":"2023-05-31","MEAN_ANOMALY":"90.9471","SITE":"AFWTR","PERIOD":"91.724","TLE_LINE1":"1 56797U 23078AG  23181.82237048  .00001251  00000-0  12171-4 0  9998","SEMIMAJOR_AXIS":"6737.241","CLASSIFICATION_TYPE":"U","MEAN_ELEMENT_THEORY":"SGP4","MEAN_MOTION_DDOT":"0.0000000000000","REV_AT_EPOCH":"510","BSTAR":"0.00001217100000","RCS_SIZE":"LARGE","EPHEMERIS_TYPE":"0","ELEMENT_SET_NO":"999","NORAD_CAT_ID":"56797","OBJECT_ID":"2023-078AG","ECCENTRICITY":"0.00036790","REF_FRAME":"TEME","TIME_SYSTEM":"UTC","ARG_OF_PERICENTER":"269.1304","OBJECT_TYPE":"PAYLOAD"},{"GP_ID":"234640269","DECAY_DATE":null,"FILE":"3946359","CENTER_NAME":"EARTH","PERIAPSIS":"356.516","EPOCH":"2023-06-30T19:44:58.210080","OBJECT_NAME":"STARLINK-6068","RA_OF_ASC_NODE":"327.4116","INCLINATION":"69.9964","TLE_LINE2":"2 56798  69.9964 327.4116 0003845 267.2855  92.7901 15.69927507  5104","APOAPSIS":"361.697","SEMIMAJOR_AXIS":"6737.241","TLE_LINE1":"1 56798U 23078AH  23181.82289595  .00001280  00000-0  12409-4 0  9999","CLASSIFICATION_TYPE":"U","SITE":"AFWTR","PERIOD":"91.724","MEAN_MOTION":"15.69927507","LAUNCH_DATE":"2023-05-31","MEAN_ANOMALY":"92.7901","MEAN_MOTION_DOT":"0.00001280","COUNTRY_CODE":"US","EPHEMERIS_TYPE":"0","ELEMENT_SET_NO":"999","RCS_SIZE":"LARGE","MEAN_MOTION_DDOT":"0.0000000000000","REV_AT_EPOCH":"510","BSTAR":"0.00001240900000","MEAN_ELEMENT_THEORY":"SGP4","ARG_OF_PERICENTER":"267.2855","OBJECT_TYPE":"PAYLOAD","ECCENTRICITY":"0.00038450","OBJECT_ID":"2023-078AH","REF_FRAME":"TEME","TIME_SYSTEM":"UTC","NORAD_CAT_ID":"56798"},{"OBJECT_NAME":"STARLINK-5953","RA_OF_ASC_NODE":"325.7906","INCLINATION":"69.9982","APOAPSIS":"361.989","TLE_LINE2":"2 56799  69.9982 325.7906 0004274 280.3202  79.7511 15.69926268  5196","CENTER_NAME":"EARTH","GP_ID":"234648008","DECAY_DATE":null,"FILE":"3946695","EPOCH":"2023-07-01T09:28:00.615648","PERIAPSIS":"356.230","LAUNCH_DATE":"2023-05-31","MEAN_MOTION":"15.69926268","MEAN_ANOMALY":"79.7511","MEAN_MOTION_DOT":"0.00000326","COUNTRY_CODE":"US","TLE_LINE1":"1 56799U 23078AJ  23182.39445157  .00000326  00000-0  44876-5 0  9995","SEMIMAJOR_AXIS":"6737.245","CLASSIFICATION_TYPE":"U","SITE":"AFWTR","PERIOD":"91.724","MEAN_MOTION_DDOT":"0.0000000000000","BSTAR":"0.00000448760000","REV_AT_EPOCH":"519","MEAN_ELEMENT_THEORY":"SGP4","ELEMENT_SET_NO":"999","EPHEMERIS_TYPE":"0","RCS_SIZE":"LARGE","NORAD_CAT_ID":"56799","OBJECT_TYPE":"PAYLOAD","ARG_OF_PERICENTER":"280.3202","REF_FRAME":"TEME","OBJECT_ID":"2023-078AJ","ECCENTRICITY":"0.00042740","TIME_SYSTEM":"UTC"}];
